NORAD_CAT_ID,OBJECT_NAME,OBJECT_TYPE,EPOCH,MEAN_MOTION,ECCENTRICITY,INCLINATION,RA_OF_ASC_NODE,ARG_OF_PERICENTER,MEAN_ANOMALY,BSTAR,MEAN_MOTION_DOT,MEAN_MOTION_DDOT,TLE_LINE0,TLE_LINE1,TLE_LINE2,SEMIMAJOR_AXIS,PERIOD,APOGEE,PERIGEE,DECAYED
52663.0,STARLINK-4037,PAYLOAD,2022-09-25 04:43:31,15.08842224,0.0001714,53.2194,57.1889,54.9492,305.166,0.00029078,4.343e-05,0.0,0 STARLINK-4037,1 52663U 22053H   22268.19688989  .00004343  00000-0  29078-3 0  9995,2 52663  53.2194  57.1889 0001714  54.9492 305.1660 15.08842224 20607,6917.874,95.437,540.924,538.553,0.0
52663.0,STARLINK-4037,PAYLOAD,2022-09-25 15:51:13,15.08837846,0.0001911999999999,53.2191,55.1054,44.8474,315.2672,1.0753e-05,-1.17e-06,0.0,0 STARLINK-4037,1 52663U 22053H   22268.66057720 -.00000117  00000-0  10753-4 0  9997,2 52663  53.2191  55.1054 0001912  44.8474 315.2672 15.08837846 20670,6917.887,95.438,541.075,538.429,0.0
52663.0,STARLINK-4037,PAYLOAD,2022-09-26 12:31:14,15.08837619,0.0001815,53.2195,51.2375,57.8133,302.3035,-5.7008e-05,-1.195e-05,0.0,0 STARLINK-4037,1 52663U 22053H   22269.52169881 -.00001195  00000-0 -57008-4 0  9997,2 52663  53.2195  51.2375 0001815  57.8133 302.3035 15.08837619 20808,6917.888000000001,95.438,541.008,538.497,0.0
52663.0,STARLINK-4037,PAYLOAD,2022-09-26 15:42:01,15.08834512,0.000204,53.2195,50.6469,41.87600000000001,318.2388,-7.2247e-05,-1.438e-05,0.0,0 STARLINK-4037,1 52663U 22053H   22269.65418273 -.00001438  00000-0 -72247-4 0  9995,2 52663  53.2195  50.6469 0002040  41.8760 318.2388 15.08834512 20823,6917.897,95.438,541.173,538.351,0.0
52663.0,STARLINK-4037,PAYLOAD,2022-09-27 04:25:05,15.08872699,0.0002143,53.2195,48.2678,36.8187,323.2952,-0.00050588,-8.338e-05,0.0,0 STARLINK-4037,1 52663U 22053H   22270.18408792 -.00008338  00000-0 -50588-3 0  9999,2 52663  53.2195  48.2678 0002143  36.8187 323.2952 15.08872699 20909,6917.78,95.435,541.128,538.163,0.0
52663.0,STARLINK-4037,PAYLOAD,2022-09-27 15:32:47,15.08842485,0.0002019,53.2195,46.18600000000001,42.1836,317.9311,0.0001264,1.724e-05,0.0,0 STARLINK-4037,1 52663U 22053H   22270.64777203  .00001724  00000-0  12640-3 0  9993,2 52663  53.2195  46.1860 0002019  42.1836 317.9311 15.08842485 20978,6917.873000000001,95.437,541.135,538.341,0.0
52663.0,STARLINK-4037,PAYLOAD,2022-09-28 12:12:49,15.0883339,0.0002215,53.22,42.3227,21.9846,338.1241,6.999e-05,8.26e-06,0.0,0 STARLINK-4037,1 52663U 22053H   22271.50890411  .00000826  00000-0  69990-4 0  9999,2 52663  53.2200  42.3227 0002215  21.9846 338.1241 15.08833390 21102,6917.901,95.438,541.298,538.2330000000002,0.0
52663.0,STARLINK-4037,PAYLOAD,2022-09-29 12:03:35,15.088472400000002,0.0002183,53.218,37.8608,47.6635,312.4542,7.1171e-05,8.45e-06,0.0,0 STARLINK-4037,1 52663U 22053H   22272.50249731  .00000845  00000-0  71171-4 0  9998,2 52663  53.2180  37.8608 0002183  47.6635 312.4542 15.08847240 21250,6917.858,95.437,541.2330000000002,538.2130000000002,0.0
52663.0,STARLINK-4037,PAYLOAD,2022-09-29 15:14:22,15.08847671,0.0002278,53.2181,37.2672,44.904,315.2136,7.333699999999999e-05,8.79e-06,0.0,0 STARLINK-4037,1 52663U 22053H   22272.63497733  .00000879  00000-0  73337-4 0  9992,2 52663  53.2181  37.2672 0002278  44.9040 315.2136 15.08847671 21271,6917.857,95.437,541.298,538.146,0.0
52663.0,STARLINK-4037,PAYLOAD,2022-09-30 08:43:37,15.08839138,0.0002021999999999,53.2205,33.9971,32.3844,327.7272,3.2638e-05,2.31e-06,0.0,0 STARLINK-4037,1 52663U 22053H   22273.36362591  .00000231  00000-0  32638-4 0  9997,2 52663  53.2205  33.9971 0002022  32.3844 327.7272 15.08839138 21383,6917.8830000000025,95.438,541.1469999999998,538.349,0.0
52663.0,STARLINK-4037,PAYLOAD,2022-09-30 16:40:32,15.088506,0.0002125,53.22,32.5109,30.681,329.4307,0.0001437,2e-05,0.0,0 STARLINK-4037,1 52663U 22053H   22273.69481650  .00002000  00000-0  14370-3 0  9999,2 52663  53.2200  32.5109 0002125  30.6810 329.4307 15.08850600 21435,6917.848000000001,95.437,541.183,538.243,0.0
52663.0,STARLINK-4037,PAYLOAD,2022-09-30 18:15:55,15.08853152,0.0002133999999999,53.2181,32.2115,30.9115,329.2002,0.0001718,2.448e-05,0.0,0 STARLINK-4037,1 52663U 22053H   22273.76105400  .00002448  00000-0  17180-3 0  9991,2 52663  53.2181  32.2115 0002134  30.9115 329.2002 15.08853152 21444,6917.84,95.437,541.181,538.229,0.0
52663.0,STARLINK-4037,PAYLOAD,2022-10-01 00:37:26,15.08862598,0.0002102,53.219,31.0224,32.283,327.829,0.00024196,3.567e-05,0.0,0 STARLINK-4037,1 52663U 22053H   22274.02600380  .00003567  00000-0  24196-3 0  9996,2 52663  53.2190  31.0224 0002102  32.2830 327.8290 15.08862598 21487,6917.811,95.436,541.13,538.222,0.0
52663.0,STARLINK-4037,PAYLOAD,2022-10-01 13:20:31,15.08856182,0.0002138,53.2197,28.6443,37.8336,322.2807,0.00015456,2.174e-05,0.0,0 STARLINK-4037,1 52663U 22053H   22274.55592530  .00002174  00000-0  15456-3 0  9993,2 52663  53.2197  28.6443 0002138  37.8336 322.2807 15.08856182 21564,6917.831,95.437,541.175,538.217,0.0
52663.0,STARLINK-4037,PAYLOAD,2022-10-01 16:31:18,15.08849195,0.0002262,53.2185,28.0485,36.0938,324.0206,0.00010806,1.432e-05,0.0,0 STARLINK-4037,1 52663U 22053H   22274.68841029  .00001432  00000-0  10806-3 0  9997,2 52663  53.2185  28.0485 0002262  36.0938 324.0206 15.08849195 21589,6917.852,95.437,541.2819999999998,538.1519999999998,0.0
52663.0,STARLINK-4037,PAYLOAD,2022-10-02 08:25:11,15.08833032,0.0002052,53.2187,25.0756,32.8393,327.2727,-7.6241e-05,-1.501e-05,0.0,0 STARLINK-4037,1 52663U 22053H   22275.35082433 -.00001501  00000-0 -76241-4 0  9993,2 52663  53.2187  25.0756 0002052  32.8393 327.2727 15.08833032 21682,6917.901999999999,95.438,541.186,538.347,0.0
52663.0,STARLINK-4037,PAYLOAD,2022-10-02 11:35:56,15.08832536,0.0002150999999999,53.2182,24.4809,34.4811,325.632,-0.00022712,-3.9e-05,0.0,0 STARLINK-4037,1 52663U 22053H   22275.48329553 -.00003900  00000-0 -22712-3 0  9992,2 52663  53.2182  24.4809 0002151  34.4811 325.6320 15.08832536 21704,6917.903,95.438,541.256,538.28,0.0
52663.0,STARLINK-4037,PAYLOAD,2022-10-02 16:22:06,15.08838638,0.0002231999999999,53.2179,23.5885,33.6547,326.4587,-9.3309e-05,-1.773e-05,0.0,0 STARLINK-4037,1 52663U 22053H   22275.68201411 -.00001773  00000-0 -93309-4 0  9993,2 52663  53.2179  23.5885 0002232  33.6547 326.4587 15.08838638 21737,6917.885,95.438,541.294,538.205,0.0
52663.0,STARLINK-4037,PAYLOAD,2022-10-03 00:19:01,15.088460199999998,0.0002234999999999,53.2175,22.1016,30.779,329.3333,6.097899999999999e-05,6.82e-06,0.0,0 STARLINK-4037,1 52663U 22053H   22276.01320905  .00000682  00000-0  60979-4 0  9994,2 52663  53.2175  22.1016 0002235  30.7790 329.3333 15.08846020 21785,6917.861999999999,95.437,541.273,538.181,0.0
52663.0,STARLINK-4037,PAYLOAD,2022-10-03 11:26:43,15.08857613,0.000208,53.2156,20.0194,29.0035,331.1072,0.0011464,0.00018013,0.0,0 STARLINK-4037,1 52663U 22053H   22276.47688898  .00018013  00000-0  11464-2 0  9992,2 52663  53.2156  20.0194 0002080  29.0035 331.1072 15.08857613 21858,6917.8269999999975,95.436,541.13,538.253,0.0
52663.0,STARLINK-4037,PAYLOAD,2022-10-03 16:12:52,15.08857283,0.0002078,53.2162,19.1275,28.6444,331.4662,0.00086776,0.00013556,0.0,0 STARLINK-4037,1 52663U 22053H   22276.67560776  .00013556  00000-0  86776-3 0  9994,2 52663  53.2162  19.1275 0002078  28.6444 331.4662 15.08857283 21884,6917.828,95.436,541.13,538.255,0.0
52663.0,STARLINK-4037,PAYLOAD,2022-10-04 01:45:10,15.08869216,0.0002157,53.2161,17.3434,29.1172,330.994,0.00090951,0.00014228,0.0,0 STARLINK-4037,1 52663U 22053H   22277.07304135  .00014228  00000-0  90951-3 0  9991,2 52663  53.2161  17.3434 0002157  29.1172 330.9940 15.08869216 21941,6917.791,95.436,541.148,538.164,0.0
52663.0,STARLINK-4037,PAYLOAD,2022-10-04 12:52:52,15.0885337,0.0002236,53.2172,15.2624,26.4632,333.6474,0.00023062,3.385e-05,0.0,0 STARLINK-4037,1 52663U 22053H   22277.53672063  .00003385  00000-0  23062-3 0  9991,2 52663  53.2172  15.2624 0002236  26.4632 333.6474 15.08853370 22015,6917.84,95.437,541.251,538.158,0.0
52663.0,STARLINK-4037,PAYLOAD,2022-10-05 00:00:34,15.08842637,0.0002323999999999,53.2162,13.1803,34.9091,325.2053,0.00034458,5.2e-05,0.0,0 STARLINK-4037,1 52663U 22053H   22278.00040475  .00005200  00000-0  34458-3 0  9999,2 52663  53.2162  13.1803 0002324  34.9091 325.2053 15.08842637 22082,6917.871999999999,95.437,541.345,538.13,0.0
52663.0,STARLINK-4037,PAYLOAD,2022-10-05 12:43:40,15.08834974,0.0002431,53.2172,10.8013,38.6904,321.4262,0.0003606,5.455e-05,0.0,0 STARLINK-4037,1 52663U 22053H   22278.53032958  .00005455  00000-0  36060-3 0  9997,2 52663  53.2172  10.8013 0002431  38.6904 321.4262 15.08834974 22167,6917.896,95.438,541.442,538.0790000000002,0.0
52663.0,STARLINK-4037,PAYLOAD,2022-10-06 12:34:28,15.088286300000002,0.0002366,53.2184,6.3419,27.2908,332.8208,6.371899999999999e-05,7.26e-06,0.0,0 STARLINK-4037,1 52663U 22053H   22279.52393997  .00000726  00000-0  63719-4 0  9998,2 52663  53.2184   6.3419 0002366  27.2908 332.8208 15.08828630 22310,6917.915,95.438,541.4169999999998,538.143,0.0
52663.0,STARLINK-4037,PAYLOAD,2022-10-06 17:20:37,15.08837774,0.0002419,53.2187,5.4483,27.0279,333.0838,0.00011344,1.517e-05,0.0,0 STARLINK-4037,1 52663U 22053H   22279.72265597  .00001517  00000-0  11344-3 0  9999,2 52663  53.2187   5.4483 0002419  27.0279 333.0838 15.08837774 22346,6917.887,95.438,541.4259999999998,538.0790000000002,0.0
52663.0,STARLINK-4037,PAYLOAD,2022-10-07 10:49:51,15.0885057,0.0002395,53.2188,2.177,29.0004,331.1121,0.00048001,7.362e-05,0.0,0 STARLINK-4037,1 52663U 22053H   22280.45129586  .00007362  00000-0  48001-3 0  9992,2 52663  53.2188   2.1770 0002395  29.0004 331.1121 15.08850570 22456,6917.848000000001,95.437,541.37,538.056,0.0
52663.0,STARLINK-4037,PAYLOAD,2022-10-07 12:25:15,15.08851196,0.0002543,53.2181,1.8821,23.4751,336.6357,0.00039663,6.032e-05,0.0,0 STARLINK-4037,1 52663U 22053H   22280.51753624  .00006032  00000-0  39663-3 0  9992,2 52663  53.2181   1.8821 0002543  23.4751 336.6357 15.08851196 22461,6917.846,95.437,541.47,537.952,0.0
